{"type":"FeatureCollection","features":[{"type":"Feature","properties":{"rola":"zlewnia_jcwp","km2":72.56},"geometry":{"type":"Polygon","coordinates":[[[17.89173,54.4739],[17.89039,54.4746],[17.89081,54.47552],[17.88943,54.4762],[17.89014,54.47695],[17.89301,54.47865],[17.89209,54.47951],[17.89193,54.48163],[17.89082,54.48333],[17.88918,54.4835],[17.88845,54.48423],[17.89076,54.48652],[17.8905,54.48673],[17.88969,54.48672],[17.88759,54.48726],[17.88549,54.48679],[17.88447,54.48734],[17.88447,54.48804],[17.88374,54.48895],[17.88415,54.49052],[17.88274,54.49332],[17.88376,54.49656],[17.88451,54.49732],[17.88267,54.49935],[17.88109,54.49956],[17.87996,54.50092],[17.87921,54.50026],[17.87801,54.50005],[17.87764,54.50017],[17.87722,54.50103],[17.87551,54.5013],[17.87398,54.50199],[17.87367,54.50252],[17.87304,54.5026],[17.87321,54.50482],[17.87372,54.50503],[17.87619,54.50514],[17.87577,54.50615],[17.87606,54.50662],[17.87426,54.50708],[17.87248,54.5065],[17.87112,54.50671],[17.87041,54.50655],[17.86902,54.50737],[17.86724,54.50788],[17.86655,54.5077],[17.86825,54.5062],[17.86811,54.5053],[17.86682,54.50491],[17.86634,54.50546],[17.86542,54.50542],[17.86399,54.50317],[17.86289,54.50262],[17.86205,54.50258],[17.86053,54.5033],[17.85999,54.50314],[17.85982,54.50268],[17.85912,54.5026],[17.85805,54.50285],[17.85729,54.5033],[17.85651,54.5033],[17.8563,54.50381],[17.85752,54.50423],[17.85719,54.50481],[17.85661,54.50504],[17.85554,54.50469],[17.85377,54.50485],[17.85234,54.50573],[17.85292,54.50599],[17.85412,54.50766],[17.85392,54.50931],[17.85547,54.50953],[17.85589,54.50995],[17.85557,54.51046],[17.85649,54.51106],[17.85617,54.51215],[17.8566,54.51501],[17.85627,54.51528],[17.85233,54.51692],[17.85083,54.51794],[17.84742,54.51866],[17.84561,54.52052],[17.84453,54.52014],[17.84438,54.51903],[17.84175,54.51896],[17.84093,54.51936],[17.83981,54.52101],[17.83855,54.52159],[17.83676,54.52292],[17.83664,54.52346],[17.8347,54.5246],[17.83397,54.52535],[17.83376,54.52608],[17.83093,54.52817],[17.82863,54.52854],[17.82702,54.52978],[17.82533,54.52998],[17.82457,54.53072],[17.82209,54.53098],[17.82049,54.53166],[17.82,54.53301],[17.82052,54.53354],[17.81919,54.53431],[17.81855,54.53644],[17.81787,54.53712],[17.81527,54.53782],[17.81226,54.53733],[17.81037,54.53841],[17.80926,54.53838],[17.80825,54.53904],[17.80711,54.53919],[17.80683,54.5396],[17.80812,54.54137],[17.80714,54.542],[17.80675,54.54327],[17.80805,54.5435],[17.81027,54.54504],[17.81012,54.54573],[17.81063,54.54684],[17.81253,54.54781],[17.81383,54.54954],[17.81521,54.55066],[17.81529,54.55197],[17.81563,54.55298],[17.81631,54.55352],[17.81664,54.55554],[17.81768,54.55618],[17.81816,54.55705],[17.81981,54.55787],[17.82158,54.55822],[17.82173,54.55943],[17.82369,54.55988],[17.82679,54.55983],[17.82884,54.56061],[17.83106,54.5619],[17.83139,54.56258],[17.83314,54.56314],[17.83528,54.56297],[17.83963,54.56336],[17.84013,54.56388],[17.84129,54.56422],[17.83779,54.56621],[17.83713,54.56722],[17.83508,54.56762],[17.83337,54.56763],[17.83127,54.56686],[17.82772,54.56611],[17.8261,54.56644],[17.82588,54.56679],[17.82352,54.56788],[17.82205,54.56759],[17.82215,54.56827],[17.81985,54.56857],[17.81976,54.56885],[17.82083,54.56915],[17.8218,54.56915],[17.82288,54.5697],[17.82484,54.57007],[17.82781,54.57166],[17.82999,54.57162],[17.83046,54.57088],[17.83134,54.57081],[17.83176,54.57118],[17.83187,54.57265],[17.836,54.57347],[17.83864,54.57335],[17.84123,54.57598],[17.84202,54.57627],[17.84379,54.57612],[17.84937,54.57883],[17.85381,54.57948],[17.85453,54.58],[17.85635,54.58062],[17.86216,54.58096],[17.86546,54.58028],[17.86645,54.58116],[17.86747,54.58156],[17.86866,54.58176],[17.87364,54.58142],[17.87574,54.58185],[17.87797,54.58298],[17.88521,54.58359],[17.89267,54.58376],[17.89519,54.58683],[17.89752,54.58704],[17.89935,54.58598],[17.90084,54.5846],[17.90051,54.58305],[17.92102,54.5809],[17.92123,54.58055],[17.91835,54.57452],[17.91636,54.57212],[17.91633,54.5716],[17.91722,54.57068],[17.91753,54.56839],[17.9193,54.56796],[17.91972,54.56711],[17.92188,54.56698],[17.92217,54.5661],[17.92372,54.56471],[17.92552,54.56479],[17.92648,54.56378],[17.92235,54.56337],[17.92105,54.56266],[17.91947,54.56247],[17.91899,54.56188],[17.91767,54.56175],[17.91589,54.56051],[17.91316,54.5602],[17.91301,54.55984],[17.91086,54.55846],[17.90854,54.55788],[17.90817,54.55744],[17.90832,54.55675],[17.90768,54.55628],[17.90552,54.55605],[17.90451,54.55629],[17.90435,54.55686],[17.9036,54.55733],[17.90365,54.55805],[17.90295,54.55847],[17.90186,54.55875],[17.90068,54.55839],[17.89866,54.55685],[17.90275,54.55316],[17.90282,54.55207],[17.90222,54.55087],[17.90453,54.55028],[17.90514,54.54923],[17.90711,54.54968],[17.90887,54.54987],[17.90997,54.54967],[17.91101,54.55003],[17.91304,54.55007],[17.9135,54.54966],[17.91755,54.5478],[17.91932,54.54795],[17.92157,54.5477],[17.92258,54.54679],[17.92312,54.54666],[17.9246,54.54414],[17.92507,54.54394],[17.92698,54.5443],[17.92808,54.54524],[17.92943,54.54512],[17.92912,54.5458],[17.92998,54.54687],[17.93189,54.54723],[17.93331,54.54785],[17.9336,54.547],[17.93522,54.54576],[17.93511,54.54546],[17.93346,54.54463],[17.93312,54.54349],[17.93338,54.54311],[17.93422,54.54283],[17.9334,54.54214],[17.93297,54.5401],[17.93233,54.53958],[17.93239,54.53825],[17.93265,54.53787],[17.93477,54.53728],[17.9364,54.53753],[17.93919,54.53466],[17.93909,54.53404],[17.93829,54.53359],[17.93873,54.53244],[17.93983,54.53188],[17.94033,54.53022],[17.9416,54.5287],[17.94064,54.52785],[17.94152,54.52666],[17.94165,54.52459],[17.9435,54.52351],[17.94871,54.52266],[17.95141,54.52275],[17.9538,54.52375],[17.95512,54.52341],[17.95776,54.52365],[17.96095,54.52341],[17.96057,54.52225],[17.95966,54.52169],[17.95862,54.52037],[17.959,54.51977],[17.96078,54.51914],[17.9608,54.51854],[17.95961,54.5175],[17.95874,54.51598],[17.95791,54.51362],[17.95684,54.512],[17.95707,54.51128],[17.95665,54.51104],[17.95646,54.50952],[17.95705,54.50871],[17.95764,54.50843],[17.95855,54.50865],[17.96131,54.50815],[17.96104,54.50715],[17.96138,54.50679],[17.96099,54.50627],[17.96144,54.50487],[17.96012,54.50424],[17.95991,54.50357],[17.96021,54.50301],[17.96224,54.50213],[17.96613,54.50108],[17.96567,54.50026],[17.9657,54.49644],[17.96474,54.49312],[17.96502,54.49256],[17.96254,54.49057],[17.96092,54.48974],[17.95825,54.48924],[17.95799,54.48811],[17.95583,54.48713],[17.95597,54.48684],[17.95445,54.48641],[17.95392,54.48513],[17.95304,54.48497],[17.95232,54.484],[17.95286,54.48343],[17.95435,54.48345],[17.95507,54.48253],[17.95639,54.48232],[17.95565,54.48063],[17.9536,54.48021],[17.95041,54.47994],[17.94977,54.47891],[17.94866,54.47884],[17.94833,54.47844],[17.94659,54.47807],[17.943,54.47806],[17.94168,54.47788],[17.94096,54.4773],[17.93993,54.47724],[17.9394,54.47685],[17.94006,54.47588],[17.93865,54.47483],[17.93814,54.47363],[17.93589,54.47336],[17.93547,54.47282],[17.93401,54.47225],[17.93314,54.47223],[17.93186,54.47272],[17.92782,54.47214],[17.92532,54.47293],[17.92429,54.47298],[17.92183,54.47442],[17.92074,54.47424],[17.91999,54.47459],[17.91653,54.47407],[17.91203,54.47409],[17.91084,54.47379],[17.90958,54.47396],[17.90511,54.47123],[17.90411,54.47095],[17.90333,54.47179],[17.90173,54.4721],[17.90045,54.47195],[17.89961,54.471],[17.8987,54.47081],[17.89597,54.47128],[17.89554,54.47056],[17.89458,54.47015],[17.89425,54.47031],[17.8942,54.47116],[17.89347,54.4718],[17.89215,54.47205],[17.89173,54.4739]]]}},{"type":"Feature","properties":{"rola":"zlewnia_gorna","km2":57.09},"geometry":{"type":"Polygon","coordinates":[[[17.83992,54.56517],[17.84452,54.56666],[17.84373,54.56719],[17.84355,54.56813],[17.84168,54.56847],[17.84175,54.56865],[17.84245,54.56852],[17.84282,54.56925],[17.84382,54.56935],[17.84451,54.5698],[17.84582,54.56982],[17.84591,54.56937],[17.84668,54.56951],[17.84683,54.56974],[17.84768,54.5697],[17.84883,54.57011],[17.84935,54.57093],[17.85011,54.57116],[17.85051,54.57085],[17.85144,54.57081],[17.85153,54.57045],[17.85341,54.56944],[17.86346,54.57254],[17.86289,54.57079],[17.86205,54.57033],[17.86176,54.5697],[17.86069,54.56942],[17.86023,54.56901],[17.86026,54.56806],[17.85729,54.56642],[17.85809,54.56539],[17.85718,54.56471],[17.86021,54.56429],[17.86162,54.56381],[17.86162,54.56347],[17.86383,54.56294],[17.86413,54.56239],[17.86523,54.56186],[17.86467,54.56089],[17.8655,54.56034],[17.86414,54.55929],[17.86402,54.55887],[17.86489,54.55842],[17.86718,54.55824],[17.86745,54.55775],[17.86858,54.55745],[17.86928,54.55697],[17.86941,54.55626],[17.87004,54.55566],[17.87043,54.55562],[17.87127,54.55603],[17.8711,54.55634],[17.87281,54.556],[17.87351,54.55619],[17.87437,54.55588],[17.87761,54.55586],[17.87787,54.55479],[17.87536,54.55342],[17.87963,54.55269],[17.88166,54.55145],[17.88298,54.55127],[17.88428,54.55069],[17.88389,54.54978],[17.88436,54.54954],[17.88438,54.54869],[17.8833,54.54787],[17.88364,54.54769],[17.88355,54.54707],[17.88296,54.54706],[17.88366,54.54679],[17.88598,54.54677],[17.88735,54.54764],[17.88821,54.54733],[17.88814,54.54711],[17.88901,54.54648],[17.8912,54.54525],[17.89198,54.5453],[17.893,54.54472],[17.89438,54.54483],[17.89579,54.54425],[17.8969,54.5435],[17.89636,54.54314],[17.89794,54.54194],[17.89712,54.54089],[17.89758,54.54117],[17.89921,54.54096],[17.90059,54.54124],[17.90137,54.54102],[17.90245,54.54126],[17.90454,54.5411],[17.90475,54.54186],[17.90528,54.54223],[17.90629,54.54201],[17.90866,54.54316],[17.91051,54.54326],[17.91373,54.54419],[17.91482,54.54411],[17.91552,54.54371],[17.91657,54.54228],[17.91813,54.54171],[17.91683,54.54107],[17.91691,54.5408],[17.91768,54.54095],[17.91792,54.54077],[17.91877,54.54091],[17.92109,54.54071],[17.92201,54.54098],[17.92287,54.54063],[17.92378,54.54149],[17.92354,54.54163],[17.92376,54.54226],[17.92551,54.54326],[17.92526,54.54397],[17.92698,54.5443],[17.92808,54.54524],[17.92943,54.54512],[17.92911,54.5458],[17.92998,54.54687],[17.93189,54.54723],[17.93331,54.54785],[17.9336,54.547],[17.93522,54.54576],[17.93511,54.54546],[17.93346,54.54463],[17.93312,54.54349],[17.93338,54.54311],[17.93422,54.54283],[17.9334,54.54214],[17.93297,54.5401],[17.93233,54.53958],[17.93239,54.53825],[17.93265,54.53787],[17.93477,54.53728],[17.9364,54.53753],[17.93919,54.53466],[17.93909,54.53404],[17.93829,54.53359],[17.93873,54.53244],[17.93983,54.53187],[17.94033,54.53022],[17.9416,54.5287],[17.94064,54.52785],[17.94152,54.52666],[17.94165,54.52459],[17.9435,54.52351],[17.94871,54.52266],[17.95142,54.52275],[17.95379,54.52376],[17.95512,54.52341],[17.95776,54.52365],[17.96052,54.52351],[17.96103,54.52327],[17.96057,54.52225],[17.95865,54.52059],[17.959,54.51976],[17.96078,54.51914],[17.9608,54.51854],[17.95961,54.5175],[17.95874,54.51598],[17.95791,54.51362],[17.95684,54.512],[17.95707,54.51128],[17.95665,54.51104],[17.95646,54.50952],[17.95705,54.50871],[17.95764,54.50843],[17.95855,54.50865],[17.96131,54.50815],[17.96104,54.50715],[17.96138,54.50679],[17.96099,54.50627],[17.96144,54.50487],[17.96012,54.50424],[17.95991,54.50357],[17.96021,54.50301],[17.96149,54.5024],[17.96613,54.50108],[17.96567,54.50026],[17.9657,54.49644],[17.9648,54.49234],[17.96254,54.49057],[17.96092,54.48974],[17.95825,54.48924],[17.95799,54.48811],[17.95583,54.48713],[17.95597,54.48684],[17.95445,54.48641],[17.95392,54.48513],[17.95304,54.48497],[17.95232,54.484],[17.95286,54.48343],[17.95435,54.48345],[17.95507,54.48253],[17.95639,54.48232],[17.95565,54.48063],[17.9536,54.48021],[17.95041,54.47994],[17.94977,54.47891],[17.94866,54.47884],[17.94833,54.47844],[17.94659,54.47807],[17.943,54.47806],[17.94168,54.47788],[17.94096,54.4773],[17.93993,54.47724],[17.9394,54.47684],[17.94006,54.47588],[17.93865,54.47483],[17.93839,54.47382],[17.93589,54.47335],[17.93547,54.47282],[17.93401,54.47225],[17.93314,54.47223],[17.93186,54.47271],[17.92782,54.47214],[17.92532,54.47293],[17.92429,54.47298],[17.92239,54.47426],[17.92183,54.47442],[17.92074,54.47424],[17.91999,54.4746],[17.91653,54.47407],[17.91203,54.47409],[17.91084,54.47379],[17.90958,54.47396],[17.90511,54.47123],[17.90411,54.47095],[17.90332,54.47179],[17.90173,54.4721],[17.90045,54.47195],[17.89961,54.471],[17.8987,54.47081],[17.89597,54.47128],[17.89554,54.47056],[17.89491,54.47021],[17.89431,54.47018],[17.8942,54.47116],[17.89347,54.4718],[17.89215,54.47205],[17.89192,54.47369],[17.8904,54.4746],[17.89081,54.47552],[17.88985,54.47582],[17.88943,54.4762],[17.89014,54.47695],[17.89301,54.47865],[17.89209,54.47951],[17.89193,54.48163],[17.89082,54.48333],[17.88918,54.4835],[17.88845,54.48423],[17.89076,54.48652],[17.8905,54.48673],[17.88969,54.48672],[17.88759,54.48726],[17.88549,54.48679],[17.88447,54.48734],[17.88447,54.48804],[17.88374,54.48895],[17.88415,54.49052],[17.88274,54.49332],[17.88376,54.49656],[17.88451,54.49732],[17.88267,54.49935],[17.88109,54.49956],[17.88033,54.50076],[17.87996,54.50092],[17.87921,54.50026],[17.87801,54.50005],[17.87764,54.50017],[17.87722,54.50103],[17.87596,54.50117],[17.87432,54.50179],[17.87367,54.50252],[17.87293,54.5028],[17.87321,54.50482],[17.87372,54.50503],[17.87619,54.50514],[17.87577,54.50615],[17.87606,54.50662],[17.87426,54.50708],[17.87248,54.5065],[17.87112,54.50671],[17.87041,54.50655],[17.86902,54.50737],[17.86724,54.50788],[17.86655,54.5077],[17.86825,54.5062],[17.86811,54.50529],[17.86682,54.50491],[17.86634,54.50546],[17.86542,54.50542],[17.86399,54.50317],[17.86289,54.50262],[17.86206,54.50258],[17.86053,54.5033],[17.85999,54.50314],[17.85982,54.50268],[17.85912,54.5026],[17.85805,54.50285],[17.85729,54.5033],[17.85651,54.5033],[17.8563,54.50381],[17.85752,54.50423],[17.85719,54.50481],[17.85661,54.50503],[17.85554,54.50469],[17.85377,54.50485],[17.85234,54.50573],[17.85292,54.50599],[17.85412,54.50766],[17.85392,54.50931],[17.85547,54.50953],[17.85589,54.50995],[17.85557,54.51046],[17.85649,54.51106],[17.85617,54.51215],[17.8566,54.51501],[17.85627,54.51528],[17.85233,54.51692],[17.85083,54.51794],[17.84742,54.51866],[17.84561,54.52052],[17.84453,54.52014],[17.84438,54.51903],[17.84175,54.51896],[17.84043,54.51979],[17.83981,54.52101],[17.83855,54.52159],[17.83676,54.52292],[17.83664,54.52346],[17.8347,54.52459],[17.83397,54.52535],[17.83376,54.52608],[17.83093,54.52817],[17.82863,54.52854],[17.82702,54.52978],[17.82533,54.52998],[17.82457,54.53072],[17.82209,54.53098],[17.82049,54.53166],[17.82,54.53301],[17.82052,54.53354],[17.8192,54.53431],[17.81855,54.53644],[17.81787,54.53712],[17.81527,54.53782],[17.81226,54.53733],[17.81037,54.53841],[17.80926,54.53838],[17.80825,54.53903],[17.8068,54.53941],[17.80812,54.54137],[17.80714,54.542],[17.80675,54.54327],[17.80804,54.5435],[17.80998,54.54477],[17.81063,54.54684],[17.81253,54.54781],[17.81383,54.54954],[17.81497,54.55028],[17.81563,54.55298],[17.81644,54.55391],[17.81664,54.55554],[17.81768,54.55618],[17.81816,54.55705],[17.81981,54.55787],[17.82158,54.55822],[17.82163,54.55931],[17.8221,54.55963],[17.82369,54.55988],[17.82679,54.55983],[17.82884,54.56061],[17.83106,54.5619],[17.83139,54.56258],[17.83314,54.56314],[17.83528,54.56297],[17.83963,54.56336],[17.84014,54.56388],[17.84128,54.56422],[17.83992,54.56517]]]}},{"type":"Feature","properties":{"rola":"roznica","km2":15.48},"geometry":{"type":"Polygon","coordinates":[[[17.82003,54.56856],[17.81992,54.5689],[17.8218,54.56915],[17.8229,54.56969],[17.82484,54.57007],[17.82782,54.57164],[17.82992,54.5716],[17.83046,54.57088],[17.83134,54.57081],[17.83176,54.57118],[17.832,54.57269],[17.83603,54.57347],[17.83864,54.57335],[17.8413,54.57601],[17.8421,54.57627],[17.84379,54.57612],[17.84939,54.57883],[17.85381,54.57948],[17.85457,54.58001],[17.85634,54.58061],[17.86218,54.58096],[17.86546,54.58028],[17.86648,54.58117],[17.86749,54.58157],[17.86869,54.58176],[17.87365,54.58142],[17.87574,54.58185],[17.87799,54.58298],[17.88522,54.58359],[17.89267,54.58376],[17.89516,54.58679],[17.89749,54.58701],[17.89936,54.58597],[17.90082,54.58462],[17.90051,54.58305],[17.92109,54.58079],[17.92121,54.58051],[17.91836,54.57453],[17.91636,54.57212],[17.91633,54.5716],[17.91722,54.57065],[17.91753,54.56839],[17.91923,54.56798],[17.91972,54.56711],[17.92183,54.56695],[17.92217,54.5661],[17.92372,54.56471],[17.92553,54.56477],[17.92638,54.56374],[17.92235,54.56337],[17.92109,54.5627],[17.91947,54.56247],[17.91894,54.56188],[17.91767,54.56175],[17.91589,54.56051],[17.91316,54.5602],[17.91299,54.55985],[17.91088,54.55848],[17.90854,54.55788],[17.90817,54.55744],[17.9083,54.55675],[17.90762,54.55627],[17.90559,54.55605],[17.90461,54.55626],[17.90435,54.55686],[17.90361,54.55735],[17.90365,54.55805],[17.90186,54.55875],[17.89988,54.55795],[17.89866,54.55685],[17.90274,54.55316],[17.90281,54.55208],[17.90222,54.55087],[17.90456,54.55026],[17.90514,54.54923],[17.90709,54.54968],[17.90889,54.54987],[17.90997,54.54967],[17.91106,54.55003],[17.91294,54.55007],[17.91755,54.5478],[17.91933,54.54795],[17.92152,54.54771],[17.92376,54.54596],[17.92418,54.54473],[17.9246,54.54414],[17.92533,54.54385],[17.92547,54.54327],[17.92374,54.54226],[17.92348,54.54109],[17.92282,54.54075],[17.92201,54.54099],[17.92101,54.54075],[17.91757,54.54098],[17.91745,54.54121],[17.91814,54.54172],[17.91664,54.54227],[17.91601,54.54336],[17.91483,54.54412],[17.91373,54.5442],[17.91045,54.54327],[17.90865,54.54316],[17.90765,54.54252],[17.90623,54.54205],[17.90527,54.54224],[17.90435,54.54116],[17.90244,54.54127],[17.90147,54.54109],[17.90059,54.54125],[17.89864,54.54103],[17.89758,54.54127],[17.89796,54.54194],[17.89652,54.54308],[17.89691,54.5435],[17.89627,54.544],[17.89439,54.54483],[17.8931,54.54475],[17.89198,54.54531],[17.89116,54.54528],[17.88909,54.54645],[17.88822,54.54734],[17.88735,54.54765],[17.88594,54.54679],[17.8837,54.54694],[17.8835,54.54806],[17.8844,54.54869],[17.88438,54.54954],[17.88395,54.54985],[17.88429,54.5507],[17.88299,54.55127],[17.88165,54.55147],[17.87964,54.5527],[17.87553,54.5534],[17.87606,54.5539],[17.87789,54.55478],[17.87762,54.55587],[17.87454,54.55589],[17.87351,54.55619],[17.87291,54.55603],[17.8711,54.55635],[17.87106,54.55603],[17.87016,54.5557],[17.86952,54.55611],[17.86929,54.55698],[17.86859,54.55746],[17.86748,54.55775],[17.86719,54.55825],[17.8649,54.55844],[17.86408,54.55885],[17.86416,54.55928],[17.86552,54.56034],[17.86469,54.56096],[17.86524,54.56187],[17.8642,54.56237],[17.86384,54.56295],[17.86188,54.56341],[17.86131,54.56399],[17.85751,54.56474],[17.8581,54.56552],[17.85749,54.56598],[17.85741,54.56643],[17.86027,54.56806],[17.86028,54.56899],[17.86096,54.56949],[17.86177,54.56969],[17.86211,54.57033],[17.8629,54.57078],[17.86347,54.57255],[17.85339,54.56948],[17.85162,54.57042],[17.85145,54.57082],[17.85059,54.57087],[17.85011,54.57117],[17.84933,54.57093],[17.84872,54.57008],[17.84771,54.56975],[17.8461,54.56951],[17.84582,54.56982],[17.8445,54.56981],[17.84383,54.56939],[17.84281,54.56925],[17.84245,54.56868],[17.84175,54.56866],[17.84166,54.56847],[17.84331,54.56808],[17.84371,54.56718],[17.84434,54.56668],[17.83979,54.5652],[17.83783,54.56618],[17.83713,54.56722],[17.83508,54.56762],[17.83337,54.56763],[17.8313,54.56687],[17.82771,54.56612],[17.82619,54.5664],[17.82588,54.56679],[17.82352,54.56787],[17.82218,54.56762],[17.82215,54.56827],[17.82003,54.56856]]]}},{"type":"Feature","properties":{"rola":"wegorza"},"geometry":{"type":"MultiLineString","coordinates":[[[17.94967,54.48875],[17.9479,54.48867],[17.94731,54.48836],[17.947,54.48784],[17.94621,54.48748],[17.94572,54.48735],[17.94506,54.48734],[17.94447,54.48721],[17.94325,54.48739],[17.94225,54.48763],[17.94179,54.48782],[17.9401,54.48806],[17.93777,54.49021],[17.93822,54.49103],[17.93783,54.49111],[17.93625,54.49209],[17.93594,54.49253],[17.93735,54.49637],[17.93662,54.49742],[17.93587,54.4976],[17.93546,54.49794],[17.93481,54.49828],[17.93361,54.49825]],[[17.93361,54.49825],[17.93121,54.49824],[17.92958,54.50047],[17.92956,54.50075],[17.92923,54.50127],[17.9295,54.50139],[17.92936,54.50154],[17.92869,54.50174],[17.92861,54.50234],[17.92872,54.50266],[17.92791,54.50379],[17.92717,54.50434],[17.92726,54.50459],[17.927,54.50505],[17.92776,54.50547],[17.92817,54.5056],[17.92828,54.50585],[17.92813,54.50621],[17.92813,54.50742],[17.92838,54.50808]],[[17.92838,54.50808],[17.92792,54.50893],[17.92743,54.50915],[17.92559,54.50955],[17.9252,54.50979],[17.92389,54.50951],[17.92335,54.50923],[17.92242,54.50899],[17.92191,54.50894],[17.92094,54.50917],[17.9196,54.50929],[17.91908,54.50955],[17.91814,54.50966],[17.91761,54.50979]],[[17.91761,54.50979],[17.91688,54.51014],[17.91618,54.51059],[17.91588,54.51119],[17.91605,54.51147],[17.91539,54.5123],[17.91525,54.51264],[17.91496,54.51291],[17.91456,54.51311],[17.91356,54.51403],[17.91236,54.5146],[17.91158,54.51516],[17.91107,54.51522],[17.91078,54.51534],[17.90979,54.51609],[17.90952,54.51669],[17.90971,54.5179],[17.90947,54.51823],[17.9094,54.5194]],[[17.9094,54.5194],[17.90836,54.52118],[17.90688,54.52285],[17.90604,54.52342],[17.90373,54.52428],[17.90351,54.52492],[17.90288,54.52548],[17.9019,54.52578],[17.901,54.52585],[17.89971,54.52557],[17.89956,54.52539],[17.89873,54.52526],[17.89805,54.52534],[17.89689,54.52527],[17.89643,54.5254]],[[17.89643,54.5254],[17.89522,54.52624],[17.89462,54.52706],[17.89379,54.52758],[17.89226,54.52801],[17.89117,54.52855],[17.88973,54.52907],[17.88824,54.52886],[17.88778,54.52851],[17.88772,54.52798],[17.88745,54.52763],[17.88604,54.52729],[17.88525,54.52683],[17.88477,54.52684],[17.88426,54.52674],[17.88174,54.52731],[17.88132,54.52778],[17.88005,54.52861],[17.87932,54.52878],[17.87827,54.52887]],[[17.87827,54.52887],[17.87764,54.52898],[17.87716,54.52895],[17.87659,54.52856],[17.87609,54.52864],[17.87586,54.52855],[17.8754,54.52851],[17.87476,54.52886],[17.87436,54.5289],[17.87423,54.52904],[17.87371,54.52918],[17.87366,54.52971],[17.87321,54.52985],[17.87278,54.53034],[17.87227,54.53064],[17.87211,54.53063],[17.87192,54.53044],[17.87154,54.53031],[17.87082,54.53027],[17.87049,54.53033],[17.87,54.53024],[17.86941,54.53048],[17.86905,54.53047],[17.86815,54.53064],[17.86747,54.53057],[17.86728,54.53072]],[[17.86728,54.53072],[17.86714,54.53073],[17.86697,54.53054],[17.86675,54.53049],[17.86618,54.53058],[17.86581,54.53074],[17.86496,54.53068],[17.86445,54.53103],[17.86397,54.53106],[17.86359,54.53121],[17.86326,54.53248],[17.86261,54.53306],[17.86261,54.53351],[17.86244,54.5338],[17.862,54.53378],[17.86152,54.53419],[17.86075,54.53464],[17.85999,54.53473],[17.8598,54.53488],[17.85987,54.53511],[17.85958,54.53536],[17.85942,54.5354],[17.85915,54.53521],[17.85901,54.53521],[17.8589,54.53537],[17.85861,54.53547],[17.85837,54.53568],[17.85823,54.53609],[17.85749,54.53624],[17.85672,54.53668],[17.85633,54.53674],[17.85605,54.5372],[17.85626,54.53749],[17.85628,54.53818],[17.85595,54.53857]],[[17.85595,54.53857],[17.85561,54.53909],[17.85421,54.54029],[17.85246,54.54109],[17.85206,54.5414],[17.85169,54.54148],[17.85074,54.54209],[17.85062,54.54227],[17.85032,54.54232],[17.85026,54.54248],[17.85011,54.54246],[17.84997,54.54259],[17.84852,54.54324],[17.84824,54.54329],[17.84717,54.54375],[17.84654,54.54368],[17.84627,54.54379],[17.84598,54.54378],[17.84565,54.54391],[17.84547,54.54409],[17.84511,54.54406]],[[17.84511,54.54406],[17.84453,54.54415],[17.84436,54.5441],[17.84406,54.54419],[17.84415,54.54446],[17.84382,54.5447],[17.84365,54.54466],[17.84197,54.54488],[17.84134,54.54485],[17.84096,54.54491],[17.84076,54.54488],[17.84033,54.54448],[17.84011,54.54457],[17.83939,54.54464],[17.83904,54.54463],[17.83852,54.54447],[17.83554,54.54467],[17.83464,54.54458],[17.83451,54.5445],[17.83376,54.54438],[17.83349,54.54443],[17.83251,54.54431]],[[17.83251,54.54431],[17.83229,54.54443],[17.83195,54.54441],[17.83168,54.54452],[17.83117,54.54454],[17.83058,54.54425],[17.83006,54.5441],[17.82977,54.54387],[17.82909,54.5438],[17.8287,54.54358],[17.82838,54.54361],[17.82785,54.54348],[17.8272,54.54313],[17.82678,54.54306],[17.82639,54.54314],[17.82607,54.54306],[17.82577,54.54325],[17.82591,54.54342],[17.82548,54.54366],[17.82464,54.5445],[17.82451,54.54546],[17.82479,54.54646],[17.82425,54.54671],[17.82405,54.54695]],[[17.82405,54.54695],[17.8244,54.54781],[17.82396,54.5493],[17.82381,54.55063],[17.82392,54.55177],[17.8244,54.55276],[17.82559,54.55412],[17.82824,54.55551],[17.83212,54.55732],[17.83662,54.55851],[17.84226,54.56038],[17.84406,54.56134],[17.84487,54.56222],[17.84493,54.56302],[17.8447,54.56318],[17.84485,54.56343],[17.84516,54.56351],[17.84607,54.56346],[17.84668,54.56398],[17.8468,54.56454],[17.84718,54.56494],[17.84755,54.56587],[17.84748,54.56619],[17.84704,54.56652],[17.84693,54.56683],[17.84602,54.56733],[17.8436,54.56818],[17.84035,54.56877],[17.83957,54.56867]],[[17.83957,54.56867],[17.83837,54.56853]],[[17.83837,54.56853],[17.83779,54.56836],[17.83735,54.56837],[17.83696,54.56848],[17.83642,54.56895],[17.83525,54.56908],[17.83458,54.569],[17.83382,54.56855],[17.83222,54.56793],[17.83138,54.56731],[17.82844,54.56634],[17.82818,54.56638],[17.82606,54.56759],[17.82524,54.56753],[17.82486,54.56759],[17.82373,54.5679],[17.8232,54.56831],[17.82249,54.56845],[17.82153,54.56878],[17.82091,54.56871],[17.81962,54.56887]]]}},{"type":"Feature","properties":{"rola":"wielistowska"},"geometry":{"type":"MultiLineString","coordinates":[[[17.92089,54.58021],[17.91844,54.58057],[17.91629,54.5811],[17.91248,54.58136],[17.91222,54.58135],[17.91117,54.58109],[17.90578,54.58063],[17.89591,54.58117],[17.88914,54.57974],[17.88505,54.57901],[17.87849,54.5783],[17.8769,54.57824],[17.87552,54.57774],[17.87256,54.57751],[17.87253,54.57771],[17.87231,54.57793],[17.87141,54.57778],[17.87098,54.57786],[17.86928,54.57786],[17.86604,54.57811]],[[17.86604,54.57811],[17.86393,54.57823],[17.86292,54.57857],[17.8605,54.57919],[17.85801,54.57955],[17.8576,54.57942],[17.85598,54.5792],[17.85563,54.57867],[17.85569,54.57823],[17.85521,54.57772],[17.85499,54.57764]],[[17.85499,54.57764],[17.85427,54.57747],[17.85406,54.57718],[17.85384,54.57711],[17.85233,54.57711],[17.85086,54.57644],[17.84997,54.57637],[17.84967,54.57654],[17.8489,54.5763],[17.84856,54.57604],[17.84802,54.576],[17.8476,54.57607],[17.84501,54.57272],[17.84459,54.57252]],[[17.84459,54.57252],[17.83837,54.56853]]]}},{"type":"Feature","properties":{"rola":"leba"},"geometry":{"type":"MultiLineString","coordinates":[[[18.01593,54.449],[18.01428,54.44908],[18.01394,54.44921],[18.01346,54.44968],[18.01342,54.4502],[18.01289,54.45102],[18.01176,54.4515],[18.01121,54.45149],[18.01104,54.45155],[18.01082,54.45216],[18.01065,54.45226],[18.01018,54.45231],[18.0096,54.45199],[18.00883,54.45192],[18.00848,54.45199],[18.00833,54.45212],[18.00826,54.45245],[18.00747,54.45319],[18.0071,54.45333],[18.00549,54.45356],[18.00509,54.45369],[18.00452,54.4543],[18.00459,54.45511],[18.00433,54.45549],[18.0037,54.45583],[18.00268,54.4561]],[[18.00268,54.4561],[18.00148,54.45624],[18.001,54.45591],[18.00068,54.4558],[17.99982,54.45588],[17.99909,54.4558],[17.99854,54.45613],[17.99844,54.45658],[17.99823,54.45676],[17.99798,54.45683],[17.99731,54.45671],[17.99667,54.45676],[17.99598,54.45659],[17.99488,54.45658],[17.99453,54.4562],[17.99427,54.45624],[17.99383,54.45649]],[[17.99383,54.45649],[17.99357,54.45689],[17.99314,54.45707],[17.99251,54.45698],[17.99186,54.45701],[17.99162,54.45724],[17.9909,54.45757],[17.99082,54.45783],[17.99056,54.45807],[17.99038,54.45807],[17.98996,54.45788],[17.98922,54.45789],[17.98897,54.45797],[17.98867,54.45824],[17.98805,54.45832],[17.98728,54.45823],[17.98608,54.45874]],[[17.98608,54.45874],[17.98358,54.45899],[17.98293,54.4589],[17.98232,54.45895],[17.98187,54.45918],[17.9815,54.45968],[17.97976,54.45944],[17.97929,54.45964],[17.97846,54.46036],[17.97662,54.46061],[17.97626,54.46078],[17.97626,54.461],[17.97669,54.46137],[17.97668,54.46196],[17.97636,54.46228],[17.97631,54.4625],[17.97634,54.46303],[17.97673,54.46341],[17.97674,54.46373],[17.97615,54.4649],[17.97612,54.46539],[17.97581,54.46576],[17.97582,54.46648],[17.97552,54.46699],[17.97561,54.4673]],[[17.97561,54.4673],[17.9758,54.46748],[17.97661,54.4678],[17.97698,54.46826],[17.97785,54.46841],[17.97769,54.46875],[17.97746,54.4689],[17.97726,54.46934],[17.97687,54.46975],[17.97706,54.46981],[17.97766,54.46968],[17.97808,54.46969],[17.97897,54.47017],[17.97912,54.47033],[17.97901,54.47058],[17.97868,54.47081],[17.97741,54.47121],[17.9772,54.47179],[17.97685,54.47214],[17.97689,54.47228]],[[17.97689,54.47228],[17.97736,54.47288],[17.97733,54.47326],[17.97696,54.4735],[17.97604,54.47352],[17.97575,54.47361],[17.97559,54.47422],[17.97567,54.47462],[17.97524,54.47486],[17.97516,54.47506],[17.9761,54.47556],[17.97592,54.4759],[17.97627,54.47602],[17.97622,54.4761],[17.97579,54.47624],[17.97568,54.47669],[17.97604,54.477],[17.97683,54.4774],[17.97708,54.47739],[17.97748,54.47698],[17.97782,54.47687],[17.97804,54.47691],[17.97889,54.47739]],[[17.97889,54.47739],[17.9801,54.47832],[17.98123,54.4787],[17.98133,54.47889],[17.9812,54.47917],[17.98068,54.47941],[17.98065,54.47954],[17.98087,54.47972],[17.98155,54.47986],[17.98182,54.48017],[17.9818,54.48029],[17.98134,54.48056],[17.9813,54.48072],[17.98182,54.48091],[17.98246,54.4809],[17.98271,54.48099],[17.98267,54.48132],[17.9823,54.48155],[17.98223,54.48173],[17.98235,54.48193],[17.98304,54.48226],[17.9828,54.48277],[17.98299,54.48307],[17.98303,54.48347],[17.98311,54.48355],[17.98402,54.48373]],[[17.98402,54.48373],[17.98447,54.48378],[17.98452,54.48405],[17.98364,54.48476],[17.98379,54.4849],[17.98428,54.48503],[17.98465,54.48563],[17.98506,54.48582],[17.98506,54.48596],[17.98477,54.48622],[17.98481,54.48642],[17.98574,54.48651],[17.98646,54.48624],[17.98704,54.48651],[17.98706,54.48676],[17.98682,54.4872],[17.98401,54.48771],[17.98376,54.48798],[17.98394,54.48841],[17.98376,54.4886],[17.98272,54.4886],[17.9825,54.48871],[17.98253,54.48888],[17.9829,54.48921],[17.98296,54.48937],[17.98273,54.48999],[17.98268,54.49071],[17.98284,54.49087],[17.98374,54.49129],[17.9846,54.49199],[17.98539,54.49232],[17.98571,54.49269],[17.98602,54.49277],[17.98664,54.49273],[17.9869,54.49298]],[[17.9869,54.49298],[17.98709,54.49314],[17.98776,54.49329],[17.98834,54.49367],[17.98841,54.49404],[17.98862,54.49417],[17.98874,54.49419],[17.98966,54.49396],[17.99085,54.49391],[17.99113,54.4941],[17.99136,54.49469],[17.99186,54.49469],[17.99245,54.49439],[17.9936,54.49462],[17.99426,54.4949],[17.99488,54.49534],[17.99487,54.49545],[17.99448,54.49573],[17.99447,54.49585],[17.99461,54.49593],[17.99491,54.49594],[17.99602,54.49573],[17.99634,54.49575],[17.99669,54.49589],[17.99708,54.49673],[17.99693,54.49723],[17.99776,54.49761],[17.99851,54.49842],[17.99828,54.49915],[17.999,54.49959],[17.99901,54.49979],[17.99884,54.5],[17.99894,54.50068]],[[17.99894,54.50068],[17.9986,54.50122],[17.99881,54.50163],[18.00025,54.50272],[18.0008,54.50283],[18.00143,54.50329],[18.00244,54.50359],[18.00284,54.50378],[18.00293,54.50393],[18.00283,54.50412],[18.00191,54.50467],[18.00222,54.50705],[18.00248,54.50763],[18.00204,54.50869],[18.00164,54.50907],[18.00124,54.50924],[18.00101,54.50925],[18.0005,54.50905],[18.00036,54.50908],[18.00003,54.5096],[17.9992,54.51017],[17.99928,54.51034],[18.00007,54.51076],[18.0,54.51105]],[[18.0,54.51105],[17.9993,54.51157],[17.99905,54.51188],[17.99905,54.5123],[17.99933,54.51273],[17.99976,54.51287],[18.00092,54.51268],[18.00125,54.5127],[18.00173,54.51278],[18.00239,54.51301],[18.0037,54.51319],[18.00411,54.51333],[18.00428,54.5135],[18.00392,54.514],[18.00401,54.51421],[18.00443,54.51432],[18.00525,54.51425],[18.00566,54.5145],[18.00573,54.51467],[18.00564,54.51477],[18.00517,54.5146],[18.00482,54.51468],[18.00494,54.51613],[18.00446,54.51624],[18.00437,54.51655],[18.00444,54.51691],[18.00488,54.51744],[18.00614,54.51801],[18.00596,54.51858]],[[18.00596,54.51858],[18.00595,54.51896],[18.00614,54.5192],[18.0064,54.51928],[18.00712,54.51919],[18.00732,54.51974],[18.00707,54.52011],[18.00647,54.52162],[18.0061,54.52179],[18.00607,54.52212],[18.00555,54.52297],[18.00518,54.52341],[18.0046,54.52387],[18.00431,54.52451],[18.00364,54.52536],[18.00404,54.5257],[18.00423,54.52668],[18.00487,54.52754],[18.00487,54.52828],[18.00497,54.52839],[18.0052,54.52848],[18.00576,54.52834],[18.00602,54.52837],[18.00674,54.52881],[18.00781,54.52929],[18.00839,54.52944],[18.00924,54.52938]],[[18.00924,54.52938],[18.00951,54.52944],[18.00976,54.52974],[18.00996,54.53074],[18.01047,54.53083],[18.01063,54.53099],[18.0105,54.53138],[18.00972,54.53221],[18.00969,54.53246],[18.0102,54.53287],[18.01107,54.53325],[18.01121,54.53384],[18.01164,54.53431],[18.0115,54.5344],[18.0108,54.53424],[18.01065,54.53436],[18.01063,54.53453],[18.01225,54.53587],[18.0123,54.53664],[18.01317,54.53848],[18.01365,54.53866],[18.01446,54.53862],[18.01553,54.53949],[18.01574,54.54029]],[[18.01574,54.54029],[18.01597,54.54105],[18.01628,54.54145],[18.01652,54.54162],[18.017,54.54165],[18.0173,54.54181],[18.01705,54.54225],[18.01713,54.54245],[18.01796,54.54312],[18.01878,54.54337],[18.02057,54.54433],[18.02115,54.54501],[18.021,54.5453],[18.01979,54.54604],[18.01986,54.54616],[18.02062,54.54656],[18.02058,54.547],[18.02038,54.54706],[18.01897,54.54686],[18.01865,54.5469],[18.01846,54.54705],[18.01847,54.54723],[18.01867,54.54742],[18.01944,54.54793],[18.01936,54.54839],[18.01881,54.54867]],[[18.01881,54.54867],[18.01755,54.54884],[18.01729,54.54894],[18.01717,54.54915],[18.01743,54.5495],[18.01735,54.54965],[18.0162,54.54926],[18.01593,54.54922],[18.01566,54.54931],[18.01435,54.55064],[18.01315,54.55161],[18.01255,54.55175],[18.01159,54.55149],[18.01131,54.55153],[18.01127,54.55167],[18.01185,54.55258],[18.01187,54.55294],[18.01157,54.55353],[18.01088,54.55382],[18.01072,54.55398],[18.01078,54.55411],[18.01135,54.55428],[18.0114,54.55441],[18.011,54.55483],[18.0108,54.55527],[18.01028,54.55558],[18.01025,54.55569],[18.01043,54.5559],[18.01033,54.55601]],[[18.01033,54.55601],[18.01004,54.55611],[18.00944,54.55593],[18.00918,54.55592],[18.00882,54.55604],[18.0087,54.55619],[18.00876,54.55647],[18.00952,54.55702],[18.0099,54.55741],[18.00996,54.55759],[18.00973,54.55773],[18.00932,54.55774],[18.00892,54.55721],[18.00841,54.5571],[18.00823,54.55717],[18.00803,54.55771],[18.00729,54.55857],[18.00712,54.55866],[18.00681,54.55871],[18.00615,54.55864],[18.00567,54.55895],[18.00525,54.55906],[18.00448,54.55868],[18.00413,54.55869],[18.00376,54.55893],[18.00358,54.55896],[18.00327,54.55884],[18.00308,54.55865]],[[18.00308,54.55865],[18.0024,54.55874],[18.00183,54.55917],[18.00174,54.55975],[18.00193,54.56015],[18.00167,54.56024],[18.00128,54.56015],[18.00064,54.5597],[18.00053,54.55953],[18.00071,54.55926],[18.0,54.55923],[17.99925,54.55906],[17.99867,54.55859],[17.99817,54.55861],[17.99744,54.55876],[17.99713,54.55883],[17.99688,54.55907],[17.99663,54.55905],[17.99619,54.55914],[17.99591,54.55908],[17.99565,54.55886],[17.99532,54.55885],[17.99496,54.55903],[17.99486,54.55962],[17.99543,54.55964],[17.99562,54.55981],[17.99559,54.56002],[17.99538,54.56015],[17.99468,54.56032],[17.99435,54.56048],[17.99399,54.56088],[17.99305,54.56122],[17.99289,54.5616],[17.99313,54.56202],[17.99304,54.56218],[17.99278,54.56223],[17.99228,54.56215],[17.99204,54.56183]],[[17.99204,54.56183],[17.99162,54.56174],[17.99109,54.56201],[17.99023,54.56209],[17.99011,54.56225],[17.9901,54.56269],[17.98979,54.56321],[17.98968,54.56383],[17.98934,54.56404],[17.9882,54.56437],[17.98675,54.56434],[17.98551,54.5644],[17.98498,54.56448],[17.98421,54.56472],[17.98309,54.56538],[17.98308,54.56561],[17.98338,54.56619],[17.98308,54.56667],[17.98234,54.56656],[17.98158,54.56722],[17.98133,54.56726],[17.98082,54.5672],[17.97838,54.56766],[17.97749,54.56807],[17.97705,54.56818],[17.97688,54.56839],[17.97709,54.56916],[17.97681,54.5692]],[[17.97681,54.5692],[17.97637,54.56905],[17.97609,54.56907],[17.97437,54.56978],[17.97428,54.57017],[17.97461,54.57037],[17.97454,54.5709],[17.97394,54.57125],[17.97328,54.57114],[17.973,54.57131],[17.97307,54.57144],[17.97335,54.57147],[17.97334,54.57169],[17.97365,54.57189],[17.97366,54.57208],[17.97313,54.57206],[17.97259,54.57221],[17.97195,54.57226],[17.97093,54.57226],[17.97078,54.57232],[17.97077,54.57254],[17.97064,54.57261],[17.97007,54.57252],[17.96971,54.57257],[17.96899,54.5729],[17.96897,54.57325],[17.96881,54.57341],[17.96676,54.57398]],[[17.96676,54.57398],[17.96628,54.57436],[17.96599,54.57473],[17.96573,54.5748],[17.96456,54.57469],[17.96321,54.57425],[17.96235,54.57388],[17.96207,54.57389],[17.96175,54.57408],[17.96159,54.57457],[17.96135,54.5747],[17.96094,54.57457],[17.96063,54.57459],[17.96022,54.57449],[17.95964,54.57467],[17.95902,54.57466],[17.95886,54.57433],[17.95842,54.5741],[17.95779,54.57398],[17.95746,54.57419],[17.95756,54.5745],[17.95715,54.57515],[17.95695,54.57523],[17.95661,54.57509],[17.95663,54.57478],[17.95649,54.57466],[17.95546,54.57448]],[[17.95546,54.57448],[17.95488,54.57453],[17.95334,54.5751],[17.95301,54.57501],[17.9528,54.57484],[17.95279,54.5747],[17.95303,54.57441],[17.95226,54.57426],[17.95203,54.57439],[17.95199,54.5746],[17.95174,54.57482],[17.95152,54.57492],[17.95114,54.57495],[17.95115,54.57518],[17.95093,54.57528],[17.95062,54.57518],[17.95027,54.57483],[17.94878,54.57463],[17.94569,54.57547],[17.94484,54.57561],[17.94462,54.57614],[17.94438,54.57641],[17.94438,54.57667],[17.94404,54.57684],[17.94218,54.57727],[17.94175,54.57721],[17.9418,54.57694],[17.94168,54.57685],[17.94147,54.57685]],[[17.94147,54.57685],[17.94132,54.57694],[17.94128,54.57715],[17.9421,54.57773],[17.94243,54.57785],[17.94334,54.57784],[17.94341,54.57797],[17.94328,54.57809],[17.9418,54.57825],[17.94114,54.5782],[17.94087,54.57809],[17.94077,54.5776],[17.94054,54.57751],[17.94012,54.57776],[17.94003,54.57822],[17.93951,54.5783],[17.93989,54.57866],[17.93989,54.5788],[17.93916,54.5788],[17.93874,54.57893],[17.93848,54.57884],[17.93808,54.57855],[17.93777,54.57871],[17.93704,54.57889],[17.93694,54.57901],[17.93703,54.57934],[17.93677,54.57983],[17.93681,54.57994]],[[17.93681,54.57994],[17.93722,54.58002],[17.93781,54.57997],[17.93788,54.58027],[17.93839,54.58025],[17.93841,54.58044],[17.93821,54.58059],[17.9376,54.58068],[17.93698,54.58098],[17.93653,54.58108],[17.93626,54.58105],[17.93588,54.58085],[17.9359,54.58071],[17.9362,54.58065],[17.93602,54.5805],[17.93481,54.58034],[17.93363,54.58103],[17.93342,54.5816],[17.93385,54.58196],[17.93322,54.58232],[17.93281,54.58227],[17.93272,54.58161],[17.93225,54.58143]],[[17.93225,54.58143],[17.93157,54.58096],[17.93142,54.58094],[17.93068,54.58135],[17.93007,54.58129],[17.92994,54.58156],[17.93019,54.58171],[17.93018,54.58186],[17.92948,54.58172],[17.92893,54.58177],[17.92829,54.58172],[17.92806,54.58153],[17.92823,54.58145],[17.92863,54.58144],[17.92861,54.5812],[17.92816,54.58125],[17.92797,54.58101],[17.92756,54.58088],[17.9277,54.58073],[17.92825,54.58057],[17.92811,54.58039],[17.9276,54.5805],[17.92708,54.58075],[17.92679,54.5811],[17.92646,54.58124],[17.92611,54.58185],[17.92586,54.58186],[17.92556,54.58178],[17.92506,54.58139]],[[17.92506,54.58139],[17.92485,54.58127],[17.92409,54.58115],[17.92382,54.58136],[17.92415,54.58166],[17.92403,54.58181],[17.92333,54.58171],[17.92281,54.58145],[17.9224,54.58152],[17.92205,54.58175],[17.92205,54.58196],[17.92237,54.58232],[17.9226,54.58279],[17.92242,54.58311],[17.92186,54.58342],[17.92158,54.58374],[17.92163,54.58379],[17.92221,54.58376],[17.92313,54.58416],[17.92316,54.5843],[17.92276,54.58466],[17.92248,54.58467],[17.92208,54.58429],[17.92152,54.58419],[17.92121,54.58395],[17.92092,54.58394]],[[17.92092,54.58394],[17.92038,54.58402],[17.91998,54.58424],[17.92007,54.58434],[17.92071,54.58449],[17.92078,54.58471],[17.92067,54.58488],[17.91982,54.58488],[17.91956,54.58496],[17.91916,54.58554],[17.91838,54.58602],[17.91663,54.58624],[17.91655,54.58642],[17.91667,54.58662],[17.91643,54.58685],[17.91638,54.58708],[17.91561,54.58715],[17.91561,54.58745],[17.91534,54.58746],[17.9148,54.5872],[17.91405,54.58714],[17.91385,54.58686]],[[17.91385,54.58686],[17.91364,54.58667],[17.91335,54.58666],[17.91314,54.58675],[17.91328,54.5873],[17.91302,54.58755],[17.91265,54.58743],[17.91244,54.58714],[17.91223,54.58705],[17.9114,54.58737],[17.91098,54.58728],[17.91076,54.5871],[17.91057,54.5871],[17.91023,54.58763],[17.91012,54.58767],[17.90981,54.5876],[17.90967,54.58774],[17.91006,54.58804],[17.91052,54.58814],[17.91047,54.58825],[17.90914,54.58812],[17.90901,54.58804],[17.90889,54.58775],[17.90868,54.58767],[17.90831,54.58776],[17.90795,54.58805],[17.90793,54.58839],[17.90761,54.58846],[17.90732,54.58836]],[[17.90732,54.58836],[17.90701,54.58804],[17.9068,54.58798],[17.90583,54.58828],[17.90581,54.58842],[17.90604,54.58869],[17.90676,54.58882],[17.90666,54.58894],[17.90611,54.58908],[17.9058,54.58901],[17.90598,54.58886],[17.90593,54.5888],[17.90538,54.58863],[17.90521,54.58866],[17.90511,54.58897],[17.90488,54.58905],[17.90459,54.589],[17.90454,54.58871],[17.90443,54.58864],[17.90409,54.58874],[17.90313,54.58863],[17.90251,54.58811],[17.90235,54.58807],[17.90193,54.58819],[17.90176,54.58863],[17.90177,54.58872],[17.90212,54.5889],[17.9021,54.58896],[17.90143,54.58881],[17.90087,54.58879]],[[17.90087,54.58879],[17.90078,54.58892],[17.90102,54.58901],[17.90098,54.58909],[17.90076,54.58917],[17.90045,54.58905],[17.90019,54.58906],[17.90003,54.58922],[17.90001,54.5895],[17.89964,54.58957],[17.89945,54.58939],[17.89995,54.58851],[17.89975,54.58843],[17.89925,54.58868],[17.89879,54.58849],[17.89854,54.58846],[17.8984,54.58856],[17.89873,54.58879],[17.89872,54.58888],[17.89827,54.58913],[17.89768,54.58928],[17.89752,54.58942],[17.89718,54.5894],[17.89714,54.58915],[17.89691,54.58904],[17.89639,54.58916],[17.89623,54.58969],[17.89544,54.58964],[17.89518,54.59032]],[[17.89518,54.59032],[17.89491,54.59024],[17.89461,54.58999],[17.89478,54.58965],[17.89471,54.58953],[17.89399,54.58928],[17.8926,54.58928],[17.8918,54.5891],[17.89158,54.58915],[17.89121,54.58941],[17.88746,54.58938],[17.88487,54.58983],[17.88388,54.59007],[17.88367,54.59008],[17.88306,54.58989],[17.88285,54.59016],[17.88261,54.59029],[17.88191,54.59026],[17.8821,54.59071],[17.88181,54.59084],[17.88141,54.59087]],[[17.88141,54.59087],[17.88128,54.59077],[17.88136,54.5905],[17.88102,54.59027],[17.88081,54.5902],[17.88008,54.5902],[17.87942,54.59043],[17.87829,54.59059],[17.87798,54.59092],[17.87791,54.59136],[17.87723,54.59163],[17.87698,54.59162],[17.87712,54.59136],[17.87699,54.59116],[17.87656,54.59113],[17.87636,54.59121],[17.87635,54.59145],[17.87614,54.59162],[17.87525,54.59156],[17.87448,54.59174],[17.87439,54.59152],[17.87401,54.5915],[17.87374,54.59173],[17.873,54.59183],[17.87268,54.59216],[17.87195,54.59232],[17.87165,54.59228],[17.87133,54.59196]],[[17.87133,54.59196],[17.87088,54.59205],[17.8649,54.59101],[17.86488,54.59065],[17.8647,54.59058],[17.86359,54.59068],[17.86294,54.59083],[17.86154,54.59066],[17.8606,54.59036],[17.85899,54.59039],[17.85851,54.59079],[17.85812,54.59086],[17.85771,54.59081],[17.85653,54.59037],[17.85622,54.59019],[17.85623,54.58994],[17.85671,54.58971],[17.85671,54.58938],[17.85621,54.58881],[17.85596,54.58868],[17.85431,54.58856],[17.85414,54.58862],[17.85399,54.58891],[17.85363,54.58913],[17.85314,54.58929],[17.85248,54.58938]],[[17.85248,54.58938],[17.85172,54.58948],[17.85145,54.58935],[17.85136,54.58914],[17.85116,54.58911],[17.85049,54.58934],[17.8502,54.58935],[17.84965,54.58918],[17.84964,54.58884],[17.84921,54.58888],[17.84873,54.58882],[17.84859,54.58853],[17.84824,54.58838],[17.84789,54.58833],[17.84526,54.58839],[17.84487,54.58828],[17.84467,54.588],[17.84417,54.58773],[17.84363,54.58763],[17.84297,54.58777],[17.8419,54.58747],[17.84175,54.58735],[17.84161,54.58683],[17.8405,54.58578],[17.84,54.58553],[17.83981,54.58531],[17.83986,54.58506],[17.84053,54.58424],[17.84058,54.58381],[17.84042,54.58371],[17.83995,54.58363],[17.83999,54.5834],[17.83914,54.58334]],[[17.83914,54.58334],[17.83903,54.58303],[17.83855,54.58282],[17.83861,54.58268],[17.83894,54.5826],[17.83917,54.58208],[17.83911,54.582],[17.8387,54.58189],[17.83868,54.58172],[17.83882,54.58154],[17.83968,54.58099],[17.83968,54.5809],[17.83935,54.58075],[17.83853,54.58084],[17.83824,54.5808],[17.8384,54.58004],[17.83803,54.5797],[17.83731,54.5795],[17.83709,54.57926],[17.83796,54.57864],[17.83792,54.57851],[17.83745,54.57814],[17.83763,54.5776],[17.83792,54.57737],[17.83736,54.57714],[17.83727,54.57664],[17.8371,54.57643],[17.83683,54.57637],[17.83636,54.57646],[17.8359,54.57629]],[[17.8359,54.57629],[17.83559,54.57621],[17.83449,54.5764],[17.83419,54.57623],[17.83369,54.57659],[17.83337,54.57665],[17.83267,54.57673],[17.83159,54.57669],[17.83116,54.57683],[17.83085,54.5768],[17.83074,54.57663],[17.83084,54.57635],[17.83075,54.57623],[17.82944,54.57602],[17.82899,54.57588],[17.8287,54.57569],[17.82849,54.57531],[17.82822,54.57515],[17.82666,54.5749],[17.82657,54.57472],[17.82671,54.57441],[17.82627,54.57388],[17.82676,54.57359],[17.82688,54.57342],[17.82674,54.57329],[17.82614,54.57328],[17.82607,54.57286],[17.82592,54.57281]],[[17.82592,54.57281],[17.8253,54.57276],[17.82356,54.57207],[17.82237,54.57119],[17.82161,54.56993],[17.81703,54.56736],[17.81653,54.56725],[17.81618,54.56742],[17.81584,54.56743],[17.81478,54.56694],[17.8139,54.56675],[17.81346,54.56658],[17.81334,54.56639],[17.81345,54.56617],[17.81297,54.56554],[17.81243,54.5653],[17.81217,54.56415],[17.81225,54.56322],[17.81211,54.5631],[17.81134,54.56321],[17.8097,54.56302],[17.8093,54.5628],[17.80918,54.56255],[17.8089,54.56244],[17.80804,54.56222],[17.80656,54.56202]],[[17.80656,54.56202],[17.80622,54.56201],[17.80593,54.5621],[17.80526,54.56282],[17.80493,54.56293],[17.80411,54.56278],[17.80283,54.5627],[17.80154,54.56243],[17.8006,54.56233],[17.80015,54.56222],[17.79939,54.56185],[17.79893,54.56196],[17.79871,54.56194],[17.79815,54.56162],[17.79724,54.56137],[17.79693,54.56117],[17.79685,54.56073],[17.79669,54.56059],[17.79613,54.56044],[17.79546,54.56005],[17.79367,54.55954],[17.79349,54.5593],[17.7938,54.55884],[17.79361,54.55813],[17.7926,54.55766],[17.79227,54.55743],[17.7921,54.55718],[17.79208,54.5566],[17.79157,54.55616],[17.79028,54.5553],[17.78874,54.5547],[17.78831,54.55445],[17.78791,54.55413],[17.78783,54.55366],[17.78753,54.55329],[17.78576,54.55285],[17.78455,54.55231]],[[17.78455,54.55231],[17.78402,54.55167],[17.78335,54.55135],[17.78308,54.55089],[17.78176,54.55043],[17.77967,54.54991],[17.77931,54.54994],[17.77857,54.55024],[17.77814,54.55015],[17.77759,54.54944],[17.77815,54.54781],[17.77803,54.54693],[17.77773,54.54667],[17.77688,54.5464],[17.77504,54.54602],[17.77484,54.54586],[17.77475,54.54555],[17.77452,54.54544],[17.77377,54.54544],[17.77205,54.54524],[17.77099,54.5452],[17.77077,54.54508],[17.77059,54.54456],[17.76962,54.54416],[17.7682,54.54457],[17.76765,54.54457],[17.76626,54.5441],[17.76573,54.54341],[17.76431,54.54259],[17.76204,54.54214]],[[17.76204,54.54214],[17.76135,54.54198],[17.76111,54.54156],[17.76095,54.5415],[17.75995,54.54173],[17.75839,54.54187],[17.75732,54.54217],[17.75636,54.54262],[17.75403,54.5434],[17.75196,54.54216],[17.75,54.54137],[17.74951,54.54127],[17.74812,54.54171],[17.74485,54.54253]]]}},{"type":"Feature","properties":{"rola":"jezioro"},"geometry":{"type":"Polygon","coordinates":[[[17.82352,54.54738],[17.82318,54.54688],[17.82275,54.5467],[17.82152,54.5465],[17.82074,54.54615],[17.82,54.54621],[17.81948,54.54603],[17.81916,54.54606],[17.81867,54.54623],[17.81832,54.54675],[17.81766,54.54721],[17.81736,54.5484],[17.81705,54.54893],[17.81681,54.54977],[17.81692,54.55084],[17.81769,54.55222],[17.81873,54.55335],[17.81898,54.55394],[17.81891,54.55478],[17.8192,54.55532],[17.82007,54.55619],[17.82092,54.55669],[17.82183,54.55686],[17.82329,54.55733],[17.82387,54.55759],[17.8251,54.55835],[17.82561,54.55856],[17.82614,54.55861],[17.82838,54.55854],[17.82875,54.55863],[17.82885,54.55876],[17.82913,54.55875],[17.83068,54.55923],[17.83218,54.56004],[17.83225,54.56069],[17.83266,54.56115],[17.83447,54.56194],[17.83577,54.5621],[17.83675,54.5621],[17.83872,54.56234],[17.83921,54.56222],[17.84022,54.56222],[17.84091,54.56235],[17.84154,54.56257],[17.84201,54.56249],[17.84349,54.56259],[17.84495,54.56302],[17.84574,54.56245],[17.84616,54.56193],[17.8462,54.56159],[17.84601,54.56127],[17.846,54.56101],[17.84669,54.55982],[17.84718,54.5585],[17.84677,54.55778],[17.84526,54.55713],[17.8441,54.55646],[17.84314,54.55614],[17.84059,54.55579],[17.83991,54.55576],[17.83915,54.55588],[17.8386,54.55579],[17.83799,54.5558],[17.83728,54.55549],[17.83556,54.55539],[17.83478,54.55493],[17.83402,54.55469],[17.83277,54.55474],[17.83209,54.55454],[17.83123,54.55387],[17.83091,54.5534],[17.82945,54.55257],[17.82819,54.55147],[17.82756,54.55038],[17.82687,54.54958],[17.82629,54.54787],[17.82597,54.54743],[17.82561,54.54725],[17.82473,54.54714],[17.82414,54.5472],[17.82372,54.54739],[17.82352,54.54738]]]}}]}
